0 COSMOS 1217
1 12032U 80085A   13280.55961188 -.00000154  00000-0  00000+0 0  4036
2 12032 068.7324 118.4293 6475571 038.6162 353.4687 02.01056938189186
0 COSMOS 1217
1 12032U 80085A   13280.56581409 -.00000154  00000-0  00000+0 0  4042
2 12032 068.7416 118.4184 6475453 038.6042 357.9627 02.01056897189180
0 COSMOS 1217
1 12032U 80085A   13285.53946472 -.00000280  00000-0  00000+0 0  4050
2 12032 068.7408 118.0495 6478177 038.4479 357.8781 02.01055473189280
0 COSMOS 1217
1 12032U 80085A   13289.82412786 -.00000350  00000-0  00000+0 0  4061
2 12032 068.7391 117.7311 6480200 038.3110 219.0820 02.01052790189377
0 COSMOS 1217
1 12032U 80085A   13294.49244787 -.00000565  00000-0  00000+0 0  4073
2 12032 068.7375 117.3840 6482297 038.1623 357.9264 02.01048137189461
